{
  "type": "FeatureCollection",
  "features": [
    {
      "type": "Feature",
      "properties": {
        "norad_id": 22490,
        "name": "SCD 1",
        "group": "resource",
        "lat": 21.51160622198162,
        "lon": -49.118304234124366,
        "alt_km": 714.8382145240648,
        "timestamp": "2025-12-16T21:38:56.826008+00:00",
        "meta_object_name": "SCD 1",
        "meta_object_id": "1993-009B",
        "meta_epoch": "2025-12-16T01:36:03.320640",
        "meta_mean_motion": 14.46001456,
        "meta_eccentricity": 0.00419345,
        "meta_inclination": 24.9691,
        "meta_ra_of_asc_node": 258.1501,
        "meta_arg_of_pericenter": 0.3121,
        "meta_mean_anomaly": 22.3996,
        "meta_ephemeris_type": 0,
        "meta_classification_type": "U",
        "meta_norad_cat_id": 22490,
        "meta_element_set_no": 999,
        "meta_rev_at_epoch": 73458,
        "meta_bstar": 8.8016475e-05,
        "meta_mean_motion_dot": 5.07e-06,
        "meta_mean_motion_ddot": 0,
        "tle_line1": "1 22490U 93009B   25350.06670510  .00000507  00000+0  88016-4 0  9996",
        "tle_line2": "2 22490  24.9691 258.1501 0041934   0.3121  22.3996 14.46001456734589"
      },
      "geometry": {
        "type": "Point",
        "coordinates": [
          -49.118304234124366,
          21.51160622198162
        ]
      }
    },
    {
      "type": "Feature",
      "properties": {
        "norad_id": 25397,
        "name": "TECHSAT 1B (GO-32)",
        "group": "resource",
        "lat": -76.90186516538398,
        "lon": 111.32281132128735,
        "alt_km": 819.0973087563507,
        "timestamp": "2025-12-16T21:38:56.826038+00:00",
        "meta_object_name": "TECHSAT 1B (GO-32)",
        "meta_object_id": "1998-043D",
        "meta_epoch": "2025-12-16T05:15:25.621920",
        "meta_mean_motion": 14.2437812,
        "meta_eccentricity": 0.00019614,
        "meta_inclination": 98.9923,
        "meta_ra_of_asc_node": 333.5115,
        "meta_arg_of_pericenter": 51.801,
        "meta_mean_anomaly": 308.3345,
        "meta_ephemeris_type": 0,
        "meta_classification_type": "U",
        "meta_norad_cat_id": 25397,
        "meta_element_set_no": 999,
        "meta_rev_at_epoch": 42528,
        "meta_bstar": 6.1187338e-05,
        "meta_mean_motion_dot": 9.5e-07,
        "meta_mean_motion_ddot": 0,
        "tle_line1": "1 25397U 98043D   25350.21904655  .00000095  00000+0  61187-4 0  9997",
        "tle_line2": "2 25397  98.9923 333.5115 0001961  51.8010 308.3345 14.24378120425280"
      },
      "geometry": {
        "type": "Point",
        "coordinates": [
          111.32281132128735,
          -76.90186516538398
        ]
      }
    },
    {
      "type": "Feature",
      "properties": {
        "norad_id": 25504,
        "name": "SCD 2",
        "group": "resource",
        "lat": 24.811587704700113,
        "lon": -160.8590786166193,
        "alt_km": 734.0711477570194,
        "timestamp": "2025-12-16T21:38:56.826054+00:00",
        "meta_object_name": "SCD 2",
        "meta_object_id": "1998-060A",
        "meta_epoch": "2025-12-16T02:07:12.836064",
        "meta_mean_motion": 14.45425183,
        "meta_eccentricity": 0.00167853,
        "meta_inclination": 24.9939,
        "meta_ra_of_asc_node": 121.2476,
        "meta_arg_of_pericenter": 349.1746,
        "meta_mean_anomaly": 171.4767,
        "meta_ephemeris_type": 0,
        "meta_classification_type": "U",
        "meta_norad_cat_id": 25504,
        "meta_element_set_no": 999,
        "meta_rev_at_epoch": 43380,
        "meta_bstar": 6.7097144e-05,
        "meta_mean_motion_dot": 4.22e-06,
        "meta_mean_motion_ddot": 0,
        "tle_line1": "1 25504U 98060A   25350.08834301  .00000422  00000+0  67097-4 0  9991",
        "tle_line2": "2 25504  24.9939 121.2476 0016785 349.1746 171.4767 14.45425183433806"
      },
      "geometry": {
        "type": "Point",
        "coordinates": [
          -160.8590786166193,
          24.811587704700113
        ]
      }
    },
    {
      "type": "Feature",
      "properties": {
        "norad_id": 25757,
        "name": "DLR-TUBSAT",
        "group": "resource",
        "lat": 2.525750911423172,
        "lon": 155.92931751436532,
        "alt_km": 710.5772262111323,
        "timestamp": "2025-12-16T21:38:56.826068+00:00",
        "meta_object_name": "DLR-TUBSAT",
        "meta_object_id": "1999-029B",
        "meta_epoch": "2025-12-15T23:20:25.315008",
        "meta_mean_motion": 14.52358976,
        "meta_eccentricity": 0.00141051,
        "meta_inclination": 98.6565,
        "meta_ra_of_asc_node": 334.5861,
        "meta_arg_of_pericenter": 182.7828,
        "meta_mean_anomaly": 177.329,
        "meta_ephemeris_type": 0,
        "meta_classification_type": "U",
        "meta_norad_cat_id": 25757,
        "meta_element_set_no": 999,
        "meta_rev_at_epoch": 40665,
        "meta_bstar": 4.4282593e-05,
        "meta_mean_motion_dot": 1.32e-06,
        "meta_mean_motion_ddot": 0,
        "tle_line1": "1 25757U 99029B   25349.97251522  .00000132  00000+0  44283-4 0  9991",
        "tle_line2": "2 25757  98.6565 334.5861 0014105 182.7828 177.3290 14.52358976406654"
      },
      "geometry": {
        "type": "Point",
        "coordinates": [
          155.92931751436532,
          2.525750911423172
        ]
      }
    },
    {
      "type": "Feature",
      "properties": {
        "norad_id": 25994,
        "name": "TERRA",
        "group": "resource",
        "lat": 7.933524621061626,
        "lon": 41.31436085904294,
        "alt_km": 691.5987874154798,
        "timestamp": "2025-12-16T21:38:56.826080+00:00",
        "meta_object_name": "TERRA",
        "meta_object_id": "1999-068A",
        "meta_epoch": "2025-12-16T07:08:50.257824",
        "meta_mean_motion": 14.60906024,
        "meta_eccentricity": 0.0003593,
        "meta_inclination": 97.9746,
        "meta_ra_of_asc_node": 41.8517,
        "meta_arg_of_pericenter": 87.5298,
        "meta_mean_anomaly": 344.6664,
        "meta_ephemeris_type": 0,
        "meta_classification_type": "U",
        "meta_norad_cat_id": 25994,
        "meta_element_set_no": 999,
        "meta_rev_at_epoch": 38290,
        "meta_bstar": 0.00010682686,
        "meta_mean_motion_dot": 4.78e-06,
        "meta_mean_motion_ddot": 0,
        "tle_line1": "1 25994U 99068A   25350.29780391  .00000478  00000+0  10683-3 0  9994",
        "tle_line2": "2 25994  97.9746  41.8517 0003593  87.5298 344.6664 14.60906024382905"
      },
      "geometry": {
        "type": "Point",
        "coordinates": [
          41.31436085904294,
          7.933524621061626
        ]
      }
    },
    {
      "type": "Feature",
      "properties": {
        "norad_id": 27004,
        "name": "MAROC-TUBSAT",
        "group": "resource",
        "lat": 76.6846555481827,
        "lon": 112.56661896203053,
        "alt_km": 1005.1787831887923,
        "timestamp": "2025-12-16T21:38:56.826092+00:00",
        "meta_object_name": "MAROC-TUBSAT",
        "meta_object_id": "2001-056D",
        "meta_epoch": "2025-12-16T07:36:13.152960",
        "meta_mean_motion": 13.70253093,
        "meta_eccentricity": 0.00191257,
        "meta_inclination": 99.7912,
        "meta_ra_of_asc_node": 158.8244,
        "meta_arg_of_pericenter": 250.5989,
        "meta_mean_anomaly": 185.023,
        "meta_ephemeris_type": 0,
        "meta_classification_type": "U",
        "meta_norad_cat_id": 27004,
        "meta_element_set_no": 999,
        "meta_rev_at_epoch": 20114,
        "meta_bstar": 3.6042039e-05,
        "meta_mean_motion_dot": -1.5e-07,
        "meta_mean_motion_ddot": 0,
        "tle_line1": "1 27004U 01056D   25350.31681890 -.00000015  00000+0  36042-4 0  9991",
        "tle_line2": "2 27004  99.7912 158.8244 0019125 250.5989 185.0230 13.70253093201140"
      },
      "geometry": {
        "type": "Point",
        "coordinates": [
          112.56661896203053,
          76.6846555481827
        ]
      }
    },
    {
      "type": "Feature",
      "properties": {
        "norad_id": 27424,
        "name": "AQUA",
        "group": "resource",
        "lat": -74.59782114618633,
        "lon": 99.39330117024595,
        "alt_km": 695.3217825021029,
        "timestamp": "2025-12-16T21:38:56.826104+00:00",
        "meta_object_name": "AQUA",
        "meta_object_id": "2002-022A",
        "meta_epoch": "2025-12-16T09:30:18.465120",
        "meta_mean_motion": 14.6181792,
        "meta_eccentricity": 0.00012308,
        "meta_inclination": 98.4041,
        "meta_ra_of_asc_node": 311.3345,
        "meta_arg_of_pericenter": 113.8376,
        "meta_mean_anomaly": 1.9014,
        "meta_ephemeris_type": 0,
        "meta_classification_type": "U",
        "meta_norad_cat_id": 27424,
        "meta_element_set_no": 999,
        "meta_rev_at_epoch": 25656,
        "meta_bstar": 0.00020805889,
        "meta_mean_motion_dot": 9.9e-06,
        "meta_mean_motion_ddot": 0,
        "tle_line1": "1 27424U 02022A   25350.39604705  .00000990  00000+0  20806-3 0  9990",
        "tle_line2": "2 27424  98.4041 311.3345 0001230 113.8376   1.9014 14.61817920256560"
      },
      "geometry": {
        "type": "Point",
        "coordinates": [
          99.39330117024595,
          -74.59782114618633
        ]
      }
    }
  ]
}